"{\n    \"CCSDS_OMM_VERS\": \"2.0\",\n    \"COMMENT\": \"GENERATED VIA SPACE-TRACK.ORG API\",\n    \"CREATION_DATE\": \"2025-08-31T17:37:22\",\n    \"ORIGINATOR\": \"18 SPCS\",\n    \"OBJECT_NAME\": \"BEIDOU 3M8\",\n    \"OBJECT_ID\": \"2018-029B\",\n    \"CENTER_NAME\": \"EARTH\",\n    \"REF_FRAME\": \"TEME\",\n    \"TIME_SYSTEM\": \"UTC\",\n    \"MEAN_ELEMENT_THEORY\": \"SGP4\",\n    \"EPOCH\": \"2025-08-31T11:06:47.957184\",\n    \"MEAN_MOTION\": \"1.8622929203\",\n    \"ECCENTRICITY\": \"0.00025569441\",\n    \"INCLINATION\": \"54.452662\",\n    \"RA_OF_ASC_NODE\": \"310.09754\",\n    \"ARG_OF_PERICENTER\": \"6.2156846\",\n    \"MEAN_ANOMALY\": \"353.85369\",\n    \"EPHEMERIS_TYPE\": \"0\",\n    \"CLASSIFICATION_TYPE\": \"U\",\n    \"NORAD_CAT_ID\": \"43246\",\n    \"ELEMENT_SET_NO\": \"999\",\n    \"REV_AT_EPOCH\": \"5048\",\n    \"BSTAR\": \"0\",\n    \"MEAN_MOTION_DOT\": \"-0.000000597367\",\n    \"MEAN_MOTION_DDOT\": \"0\",\n    \"TLE_LINE0\": \"0 BEIDOU 3M8\",\n    \"TLE_LINE1\": \"1 43246U 18029B   25243.46305506 -.00000060  00000-0  00000-0 0  9991\",\n    \"TLE_LINE2\": \"2 43246  54.4527 310.0975 0002557   6.2157 353.8537  1.86229292 50485\",\n    \"SEMIMAJOR_AXIS\": \"27906.359\",\n    \"PERIOD\": \"773.240\",\n    \"APOAPSIS\": \"21535.360\",\n    \"PERIAPSIS\": \"21521.089\",\n    \"OBJECT_TYPE\": \"PAYLOAD\",\n    \"DECAYED\": \"0\"\n}"